[{"OBJECT_NAME":"STARLINK-33672","OBJECT_ID":"2025-057V","EPOCH":"2026-03-09T21:47:58.734816","MEAN_MOTION":15.27589509,"ECCENTRICITY":0.00011355,"INCLINATION":43.0001,"RA_OF_ASC_NODE":29.3596,"ARG_OF_PERICENTER":270.1685,"MEAN_ANOMALY":89.9036,"EPHEMERIS_TYPE":0,"CLASSIFICATION_TYPE":"U","NORAD_CAT_ID":63326,"ELEMENT_SET_NO":999,"REV_AT_EPOCH":5581,"BSTAR":0.001208326,"MEAN_MOTION_DOT":0.00033148,"MEAN_MOTION_DDOT":0},{"OBJECT_NAME":"REAL","OBJECT_ID":"2025-154G","EPOCH":"2026-03-09T17:20:09.670560","MEAN_MOTION":15.28408058,"ECCENTRICITY":0.00018528,"INCLINATION":97.4133,"RA_OF_ASC_NODE":137.2581,"ARG_OF_PERICENTER":118.5876,"MEAN_ANOMALY":241.555,"EPHEMERIS_TYPE":0,"CLASSIFICATION_TYPE":"U","NORAD_CAT_ID":64875,"ELEMENT_SET_NO":999,"REV_AT_EPOCH":3483,"BSTAR":0.0008290401,"MEAN_MOTION_DOT":0.00022901,"MEAN_MOTION_DDOT":0}]
